{
    "links": {
        "self": "http://www.neowsapp.com/rest/v1/neo/3766183?api_key=iIulBulltgU6a56xZRHN4H3l9WmuAYTsLGpBGhQ2"
    },
    "id": "3766183",
    "neo_reference_id": "3766183",
    "name": "(2016 YS8)",
    "designation": "2016 YS8",
    "nasa_jpl_url": "http://ssd.jpl.nasa.gov/sbdb.cgi?sstr=3766183",
    "absolute_magnitude_h": 21.4,
    "estimated_diameter": {
        "kilometers": {
            "estimated_diameter_min": 0.1394938229,
            "estimated_diameter_max": 0.3119176705
        },
        "meters": {
            "estimated_diameter_min": 139.4938229344,
            "estimated_diameter_max": 311.9176705226
        },
        "miles": {
            "estimated_diameter_min": 0.0866774163,
            "estimated_diameter_max": 0.1938165949
        },
        "feet": {
            "estimated_diameter_min": 457.6569140361,
            "estimated_diameter_max": 1023.3519701574
        }
    },
    "is_potentially_hazardous_asteroid": false,
    "close_approach_data": [
        {
            "close_approach_date": "2012-12-25",
            "close_approach_date_full": "2012-Dec-25 21:33",
            "epoch_date_close_approach": 1356471180000,
            "relative_velocity": {
                "kilometers_per_second": "26.210663796",
                "kilometers_per_hour": "94358.3896654751",
                "miles_per_hour": "58630.6338451948"
            },
            "miss_distance": {
                "astronomical": "0.4711520266",
                "lunar": "183.2781383474",
                "kilometers": "70483339.625543342",
                "miles": "43796316.3811364396"
            },
            "orbiting_body": "Earth"
        },
        {
            "close_approach_date": "2016-12-23",
            "close_approach_date_full": "2016-Dec-23 18:16",
            "epoch_date_close_approach": 1482516960000,
            "relative_velocity": {
                "kilometers_per_second": "19.6443631909",
                "kilometers_per_hour": "70719.7074871817",
                "miles_per_hour": "43942.476021688"
            },
            "miss_distance": {
                "astronomical": "0.3053516288",
                "lunar": "118.7817836032",
                "kilometers": "45679953.269510656",
                "miles": "28384206.7685168128"
            },
            "orbiting_body": "Earth"
        },
        {
            "close_approach_date": "2021-01-02",
            "close_approach_date_full": "2021-Jan-02 02:33",
            "epoch_date_close_approach": 1609554780000,
            "relative_velocity": {
                "kilometers_per_second": "18.3783336761",
                "kilometers_per_hour": "66162.0012338999",
                "miles_per_hour": "41110.4946000307"
            },
            "miss_distance": {
                "astronomical": "0.4785551931",
                "lunar": "186.1579701159",
                "kilometers": "71590837.565198697",
                "miles": "44484483.6900961386"
            },
            "orbiting_body": "Earth"
        }
    ],
    "orbital_data": {
        "orbit_id": "6",
        "orbit_determination_date": "2017-04-06 08:21:17",
        "first_observation_date": "2016-12-27",
        "last_observation_date": "2017-01-07",
        "data_arc_in_days": 11,
        "observations_used": 48,
        "orbit_uncertainty": "8",
        "minimum_orbit_intersection": ".15351",
        "jupiter_tisserand_invariant": "5.070",
        "epoch_osculation": "2457751.5",
        "eccentricity": ".3499814701069523",
        "semi_major_axis": "1.195947274927526",
        "inclination": "36.8115416133586",
        "ascending_node_longitude": "284.7569050604356",
        "orbital_period": "477.7123590788985",
        "perihelion_distance": ".7773878894779869",
        "perihelion_argument": "49.72427180681863",
        "aphelion_distance": "1.614506660377065",
        "perihelion_time": "2457644.866157599121",
        "mean_anomaly": "80.35836321742784",
        "mean_motion": ".7535915560027258",
        "equinox": "J2000",
        "orbit_class": {
            "orbit_class_type": "APO",
            "orbit_class_description": "Near-Earth asteroid orbits which cross the Earth’s orbit similar to that of 1862 Apollo",
            "orbit_class_range": "a (semi-major axis) > 1.0 AU; q (perihelion) < 1.017 AU"
        }
    },
    "is_sentry_object": false
}